METOP-B                 
1 38771U 12049A   26066.61486086  .00000140  00000+0  83720-4 0  9999
2 38771  98.6646 120.0793 0001178 277.3045  82.7999 14.21443914698835
SARAL                   
1 39086U 13009A   26066.64582505  .00000179  00000+0  81585-4 0  9991
2 39086  98.5554 254.4875 0001356 186.8090 173.3076 14.32827785681061
METOP-C                 
1 43689U 18087A   26066.63931795  .00000163  00000+0  94161-4 0  9991
2 43689  98.6770 128.0471 0002185 102.6930 257.4492 14.21496292380407
OTB-3-GAZELLE           
1 54023U 22127A   26066.52130092  .00000149  00000+0  57701-4 0  9997
2 54023  98.3908  59.7983 0014010 131.8244 228.4145 14.42634168179702
EOS-6 (OCEANSAT-3)      
1 54361U 22158A   26066.58277424  .00000537  00000+0  15952-3 0  9995
2 54361  98.3489 166.1601 0000089 103.6362 256.4841 14.47003511173143
KINEIS-1B               
1 60079U 24114A   26066.60770480  .00001706  00000+0  23024-3 0  9993
2 60079  97.9925  91.2496 0003789  77.3083 282.8553 14.80411402 92370
KINEIS-1C               
1 60081U 24114C   26066.57383336  .00001580  00000+0  21380-3 0  9995
2 60081  97.9947  91.0409 0002157 119.9679 240.1747 14.80402089 92341
KINEIS-1D               
1 60082U 24114D   26066.64021049  .00001142  00000+0  17283-3 0  9995
2 60082  97.9970  87.8557 0002386 127.0945 233.0483 14.76109744 92148
KINEIS-1E               
1 60083U 24114E   26066.59075684  .00001624  00000+0  21945-3 0  9999
2 60083  97.9931  91.1390 0002469  89.1486 271.0009 14.80420672 92359
KINEIS-1A               
1 60084U 24114F   26066.62455831  .00001322  00000+0  17994-3 0  9994
2 60084  97.9938  91.2953 0004829  96.8944 263.2818 14.80433874 92369
KINEIS-3C               
1 61220U 24172A   26066.19837252  .00002666  00000+0  42964-3 0  9991
2 61220  98.0295 157.2301 0003523 105.3157 254.8440 14.72300439 78061
KINEIS-3D               
1 61221U 24172B   26066.25968798  .00003333  00000+0  53505-3 0  9994
2 61221  98.0294 157.3018 0002583 110.6327 249.5157 14.72306930 78350
KINEIS-3E               
1 61222U 24172C   26066.24263594  .00003264  00000+0  52418-3 0  9991
2 61222  98.0292 157.2800 0001612 105.9308 254.2077 14.72294777 78354
KINEIS-3A               
1 61223U 24172D   26066.56541162  .00003210  00000+0  51531-3 0  9993
2 61223  98.0285 157.6876 0002996  74.4782 285.6756 14.72324116 77820
KINEIS-3B               
1 61224U 24172E   26066.48050566  .00003282  00000+0  52729-3 0  9997
2 61224  98.0284 157.6371 0003527  66.3925 293.7653 14.72278006 78384
KINEIS-5C               
1 62081U 24219A   26066.59306128  .00001573  00000+0  25634-3 0  9997
2 62081  97.9693 228.0896 0001786 105.5587 254.5818 14.72360146 68809
KINEIS-5D               
1 62082U 24219B   26066.62705537  .00001264  00000+0  20762-3 0  9993
2 62082  97.9606 228.1032 0001088 101.4623 258.6706 14.72338469 68813
