[{"OBJECT_NAME":"METOP-B","OBJECT_ID":"2012-049A","EPOCH":"2026-03-07T14:45:23.978304","MEAN_MOTION":14.21443914,"ECCENTRICITY":0.00011786,"INCLINATION":98.6646,"RA_OF_ASC_NODE":120.0793,"ARG_OF_PERICENTER":277.3045,"MEAN_ANOMALY":82.7999,"EPHEMERIS_TYPE":0,"CLASSIFICATION_TYPE":"U","NORAD_CAT_ID":38771,"ELEMENT_SET_NO":999,"REV_AT_EPOCH":69883,"BSTAR":8.3720296e-5,"MEAN_MOTION_DOT":1.4e-6,"MEAN_MOTION_DDOT":0},{"OBJECT_NAME":"SARAL","OBJECT_ID":"2013-009A","EPOCH":"2026-03-07T15:29:59.284320","MEAN_MOTION":14.32827785,"ECCENTRICITY":0.00013564,"INCLINATION":98.5554,"RA_OF_ASC_NODE":254.4875,"ARG_OF_PERICENTER":186.809,"MEAN_ANOMALY":173.3076,"EPHEMERIS_TYPE":0,"CLASSIFICATION_TYPE":"U","NORAD_CAT_ID":39086,"ELEMENT_SET_NO":999,"REV_AT_EPOCH":68106,"BSTAR":8.1585494e-5,"MEAN_MOTION_DOT":1.79e-6,"MEAN_MOTION_DDOT":0},{"OBJECT_NAME":"METOP-C","OBJECT_ID":"2018-087A","EPOCH":"2026-03-07T15:20:37.070880","MEAN_MOTION":14.21496292,"ECCENTRICITY":0.00021855,"INCLINATION":98.677,"RA_OF_ASC_NODE":128.0471,"ARG_OF_PERICENTER":102.693,"MEAN_ANOMALY":257.4492,"EPHEMERIS_TYPE":0,"CLASSIFICATION_TYPE":"U","NORAD_CAT_ID":43689,"ELEMENT_SET_NO":999,"REV_AT_EPOCH":38040,"BSTAR":9.416104e-5,"MEAN_MOTION_DOT":1.63e-6,"MEAN_MOTION_DDOT":0},{"OBJECT_NAME":"OTB-3-GAZELLE","OBJECT_ID":"2022-127A","EPOCH":"2026-03-07T12:30:40.399488","MEAN_MOTION":14.42634168,"ECCENTRICITY":0.00140106,"INCLINATION":98.3908,"RA_OF_ASC_NODE":59.7983,"ARG_OF_PERICENTER":131.8244,"MEAN_ANOMALY":228.4145,"EPHEMERIS_TYPE":0,"CLASSIFICATION_TYPE":"U","NORAD_CAT_ID":54023,"ELEMENT_SET_NO":999,"REV_AT_EPOCH":17970,"BSTAR":5.770087e-5,"MEAN_MOTION_DOT":1.49e-6,"MEAN_MOTION_DDOT":0},{"OBJECT_NAME":"EOS-6 (OCEANSAT-3)","OBJECT_ID":"2022-158A","EPOCH":"2026-03-07T13:59:11.694336","MEAN_MOTION":14.47003511,"ECCENTRICITY":8.91e-6,"INCLINATION":98.3489,"RA_OF_ASC_NODE":166.1601,"ARG_OF_PERICENTER":103.6362,"MEAN_ANOMALY":256.4841,"EPHEMERIS_TYPE":0,"CLASSIFICATION_TYPE":"U","NORAD_CAT_ID":54361,"ELEMENT_SET_NO":999,"REV_AT_EPOCH":17314,"BSTAR":0.00015951516,"MEAN_MOTION_DOT":5.37e-6,"MEAN_MOTION_DDOT":0},{"OBJECT_NAME":"KINEIS-1B","OBJECT_ID":"2024-114A","EPOCH":"2026-03-07T14:35:05.694720","MEAN_MOTION":14.80411402,"ECCENTRICITY":0.00037896,"INCLINATION":97.9925,"RA_OF_ASC_NODE":91.2496,"ARG_OF_PERICENTER":77.3083,"MEAN_ANOMALY":282.8553,"EPHEMERIS_TYPE":0,"CLASSIFICATION_TYPE":"U","NORAD_CAT_ID":60079,"ELEMENT_SET_NO":999,"REV_AT_EPOCH":9237,"BSTAR":0.00023024369,"MEAN_MOTION_DOT":1.706e-5,"MEAN_MOTION_DDOT":0},{"OBJECT_NAME":"KINEIS-1C","OBJECT_ID":"2024-114C","EPOCH":"2026-03-07T13:46:19.202304","MEAN_MOTION":14.80402089,"ECCENTRICITY":0.00021571,"INCLINATION":97.9947,"RA_OF_ASC_NODE":91.0409,"ARG_OF_PERICENTER":119.9679,"MEAN_ANOMALY":240.1747,"EPHEMERIS_TYPE":0,"CLASSIFICATION_TYPE":"U","NORAD_CAT_ID":60081,"ELEMENT_SET_NO":999,"REV_AT_EPOCH":9234,"BSTAR":0.00021379535,"MEAN_MOTION_DOT":1.58e-5,"MEAN_MOTION_DDOT":0},{"OBJECT_NAME":"KINEIS-1D","OBJECT_ID":"2024-114D","EPOCH":"2026-03-07T15:21:54.186336","MEAN_MOTION":14.76109744,"ECCENTRICITY":0.00023866,"INCLINATION":97.997,"RA_OF_ASC_NODE":87.8557,"ARG_OF_PERICENTER":127.0945,"MEAN_ANOMALY":233.0483,"EPHEMERIS_TYPE":0,"CLASSIFICATION_TYPE":"U","NORAD_CAT_ID":60082,"ELEMENT_SET_NO":999,"REV_AT_EPOCH":9214,"BSTAR":0.00017282635,"MEAN_MOTION_DOT":1.142e-5,"MEAN_MOTION_DDOT":0},{"OBJECT_NAME":"KINEIS-1E","OBJECT_ID":"2024-114E","EPOCH":"2026-03-07T14:10:41.390976","MEAN_MOTION":14.80420672,"ECCENTRICITY":0.00024699,"INCLINATION":97.9931,"RA_OF_ASC_NODE":91.139,"ARG_OF_PERICENTER":89.1486,"MEAN_ANOMALY":271.0009,"EPHEMERIS_TYPE":0,"CLASSIFICATION_TYPE":"U","NORAD_CAT_ID":60083,"ELEMENT_SET_NO":999,"REV_AT_EPOCH":9235,"BSTAR":0.00021944745,"MEAN_MOTION_DOT":1.624e-5,"MEAN_MOTION_DDOT":0},{"OBJECT_NAME":"KINEIS-1A","OBJECT_ID":"2024-114F","EPOCH":"2026-03-07T14:59:21.837984","MEAN_MOTION":14.80433874,"ECCENTRICITY":0.00048295,"INCLINATION":97.9938,"RA_OF_ASC_NODE":91.2953,"ARG_OF_PERICENTER":96.8944,"MEAN_ANOMALY":263.2818,"EPHEMERIS_TYPE":0,"CLASSIFICATION_TYPE":"U","NORAD_CAT_ID":60084,"ELEMENT_SET_NO":999,"REV_AT_EPOCH":9236,"BSTAR":0.00017994013,"MEAN_MOTION_DOT":1.322e-5,"MEAN_MOTION_DDOT":0},{"OBJECT_NAME":"KINEIS-3C","OBJECT_ID":"2024-172A","EPOCH":"2026-03-07T04:45:39.385728","MEAN_MOTION":14.72300439,"ECCENTRICITY":0.00035235,"INCLINATION":98.0295,"RA_OF_ASC_NODE":157.2301,"ARG_OF_PERICENTER":105.3157,"MEAN_ANOMALY":254.844,"EPHEMERIS_TYPE":0,"CLASSIFICATION_TYPE":"U","NORAD_CAT_ID":61220,"ELEMENT_SET_NO":999,"REV_AT_EPOCH":7806,"BSTAR":0.00042964078,"MEAN_MOTION_DOT":2.666e-5,"MEAN_MOTION_DDOT":0},{"OBJECT_NAME":"KINEIS-3D","OBJECT_ID":"2024-172B","EPOCH":"2026-03-07T06:13:57.041472","MEAN_MOTION":14.7230693,"ECCENTRICITY":0.0002583,"INCLINATION":98.0294,"RA_OF_ASC_NODE":157.3018,"ARG_OF_PERICENTER":110.6327,"MEAN_ANOMALY":249.5157,"EPHEMERIS_TYPE":0,"CLASSIFICATION_TYPE":"U","NORAD_CAT_ID":61221,"ELEMENT_SET_NO":999,"REV_AT_EPOCH":7835,"BSTAR":0.00053505,"MEAN_MOTION_DOT":3.333e-5,"MEAN_MOTION_DDOT":0},{"OBJECT_NAME":"KINEIS-3E","OBJECT_ID":"2024-172C","EPOCH":"2026-03-07T05:49:23.745216","MEAN_MOTION":14.72294777,"ECCENTRICITY":0.0001612,"INCLINATION":98.0292,"RA_OF_ASC_NODE":157.28,"ARG_OF_PERICENTER":105.9308,"MEAN_ANOMALY":254.2077,"EPHEMERIS_TYPE":0,"CLASSIFICATION_TYPE":"U","NORAD_CAT_ID":61222,"ELEMENT_SET_NO":999,"REV_AT_EPOCH":7835,"BSTAR":0.00052418,"MEAN_MOTION_DOT":3.264e-5,"MEAN_MOTION_DDOT":0},{"OBJECT_NAME":"KINEIS-3A","OBJECT_ID":"2024-172D","EPOCH":"2026-03-07T13:34:11.563968","MEAN_MOTION":14.72324116,"ECCENTRICITY":0.00029968,"INCLINATION":98.0285,"RA_OF_ASC_NODE":157.6876,"ARG_OF_PERICENTER":74.4782,"MEAN_ANOMALY":285.6756,"EPHEMERIS_TYPE":0,"CLASSIFICATION_TYPE":"U","NORAD_CAT_ID":61223,"ELEMENT_SET_NO":999,"REV_AT_EPOCH":7782,"BSTAR":0.00051530732,"MEAN_MOTION_DOT":3.21e-5,"MEAN_MOTION_DDOT":0},{"OBJECT_NAME":"KINEIS-3B","OBJECT_ID":"2024-172E","EPOCH":"2026-03-07T11:31:55.689024","MEAN_MOTION":14.72278006,"ECCENTRICITY":0.00035271,"INCLINATION":98.0284,"RA_OF_ASC_NODE":157.6371,"ARG_OF_PERICENTER":66.3925,"MEAN_ANOMALY":293.7653,"EPHEMERIS_TYPE":0,"CLASSIFICATION_TYPE":"U","NORAD_CAT_ID":61224,"ELEMENT_SET_NO":999,"REV_AT_EPOCH":7838,"BSTAR":0.00052729297,"MEAN_MOTION_DOT":3.282e-5,"MEAN_MOTION_DDOT":0},{"OBJECT_NAME":"KINEIS-5C","OBJECT_ID":"2024-219A","EPOCH":"2026-03-07T14:14:00.494592","MEAN_MOTION":14.72360146,"ECCENTRICITY":0.00017869,"INCLINATION":97.9693,"RA_OF_ASC_NODE":228.0896,"ARG_OF_PERICENTER":105.5587,"MEAN_ANOMALY":254.5818,"EPHEMERIS_TYPE":0,"CLASSIFICATION_TYPE":"U","NORAD_CAT_ID":62081,"ELEMENT_SET_NO":999,"REV_AT_EPOCH":6880,"BSTAR":0.00025634387,"MEAN_MOTION_DOT":1.573e-5,"MEAN_MOTION_DDOT":0},{"OBJECT_NAME":"KINEIS-5D","OBJECT_ID":"2024-219B","EPOCH":"2026-03-07T15:02:57.583968","MEAN_MOTION":14.72338469,"ECCENTRICITY":0.00010882,"INCLINATION":97.9606,"RA_OF_ASC_NODE":228.1032,"ARG_OF_PERICENTER":101.4623,"MEAN_ANOMALY":258.6706,"EPHEMERIS_TYPE":0,"CLASSIFICATION_TYPE":"U","NORAD_CAT_ID":62082,"ELEMENT_SET_NO":999,"REV_AT_EPOCH":6881,"BSTAR":0.00020762148,"MEAN_MOTION_DOT":1.264e-5,"MEAN_MOTION_DDOT":0}]
